satname,norad_id,inclination_deg,eccentricity,mean_motion_rev_per_day,perigee_km,apogee_km,l1,l2
STARLINK-1363,45568,53.0552,0.0001726,15.37357404,452.74809208655006,455.10652068511354,1 45568U 20025AP  25300.83334491  .01511253  00000+0  37215-1 0  9998,2 45568  53.0552 321.5296 0001726  64.0692 218.6169 15.37357404  5738
STARLINK-1366,45569,53.0664,8.86e-05,15.37276747,453.5609362477053,454.7716203886239,1 45569U 20025AQ  25300.83334491  .00432339  00000+0  11024-1 0  9995,2 45569  53.0664 320.9484 0000886 106.3451  48.7919 15.37276747  5672
STARLINK-1376,45570,53.0567,0.0001445,15.06395701,546.2240190149105,548.2254485559743,1 45570U 20025AR  25300.39742782 -.00000216  00000+0  44144-5 0  9993,2 45570  53.0567 324.9935 0001445  87.5638 272.5517 15.06395701305278
STARLINK-1320,45572,53.059,0.0009394,15.41806253,434.37277162164446,447.18414998940625,1 45572U 20025AT  25300.89737059  .00127601  00000+0  29236-2 0  9990,2 45572  53.0590 267.0176 0009394   2.7282 357.3772 15.41806253306156
STARLINK-1321,45573,53.0557,0.0001342,15.06406387,546.2626036228503,548.1213619218252,1 45573U 20025AU  25300.31724433  .00000857  00000+0  76424-4 0  9996,2 45573  53.0557 315.3513 0001342  90.2976 269.8166 15.06406387305102
STARLINK-1328,45576,53.0517,0.0010184,15.6640303,362.33518298169383,376.0781725846018,1 45576U 20025AX  25300.83334491  .00220112  00000+0  20254-2 0  9993,2 45576  53.0517 290.9484 0010184  24.5729  32.2821 15.66403030  5976
STARLINK-1331,45578,53.0564,0.0001741,15.06399575,546.0071570916598,548.4185639130856,1 45578U 20025AZ  25300.36150426  .00001552  00000+0  12309-3 0  9995,2 45578  53.0564 315.1533 0001741  91.0491 269.0697 15.06399575305425
STARLINK-1333,45580,53.0549,0.0001448,15.06397311,546.2170076837056,548.2225910127954,1 45580U 20025BB  25300.36794755  .00001051  00000+0  89462-4 0  9996,2 45580  53.0549 325.1215 0001448  86.2025 273.9129 15.06397311305275
STARLINK-1335,45581,53.0549,0.0001634,15.06407189,546.0579264221578,548.3211231304549,1 45581U 20025BC  25300.23985388  .00004351  00000+0  31075-3 0  9999,2 45581  53.0549 315.6993 0001634  86.3706 273.7470 15.06407189305392
STARLINK-1337,45582,53.0548,0.0001368,15.0639279,546.2862649322933,548.1810463436759,1 45582U 20025BD  25300.32829966 -.00004681  00000+0 -29560-3 0  9993,2 45582  53.0548 315.3024 0001368  91.3404 268.7742 15.06392790305408
STARLINK-1347,45586,53.0561,0.0006889,15.30831598,468.60990452383703,478.04985559118086,1 45586U 20025BH  25300.83334491  .00103465  00000+0  33881-2 0  9995,2 45586  53.0561 299.1878 0006889 339.2757 211.7236 15.30831598  5843
STARLINK-1360,45588,53.0443,0.0006012,15.74350071,342.43842559162294,350.5241065947721,1 45588U 20025BK  25300.83334491  .00113408  00000+0  76219-3 0  9998,2 45588  53.0443 218.9820 0006012 112.5867 228.6259 15.74350071  5967
STARLINK-1364,45589,53.0558,0.0001581,15.0640678,546.0958839709656,548.285672614461,1 45589U 20025BL  25300.33200345  .00000984  00000+0  84908-4 0  9993,2 45589  53.0558 315.2897 0001581  93.8209 266.2960 15.06406780305400
STARLINK-1365,45590,53.0564,0.0001349,15.06405536,546.26036371595,548.128818179187,1 45590U 20025BM  25300.54669547  .00000427  00000+0  47567-4 0  9993,2 45590  53.0564 344.3191 0001349  92.3194 267.7950 15.06405536305030
STARLINK-1443,45660,53.0549,0.0001507,15.06410711,546.1350853798749,548.222375541036,1 45660U 20035D   25300.33290565  .00002557  00000+0  19046-3 0  9995,2 45660  53.0549 305.2806 0001507  90.5969 269.5192 15.06410711298632
STARLINK-1446,45663,53.0259,0.0001026,15.33132257,465.7715787148236,467.17609285832714,1 45663U 20035G   25300.21801695  .00059786  00000+0  18385-2 0  9997,2 45663  53.0259 269.5263 0001026  14.7425 345.3605 15.33132257299126
STARLINK-1448,45665,53.0553,0.0001454,15.06405778,546.1869061515836,548.2007923625479,1 45665U 20035J   25300.27026029  .00002078  00000+0  15831-3 0  9991,2 45665  53.0553 305.5616 0001454  98.6228 261.4925 15.06405778298612
STARLINK-1451,45668,53.0548,0.0001425,15.0641081,546.191569594972,548.1652844916798,1 45668U 20035M   25300.34033903  .00004771  00000+0  33884-3 0  9991,2 45668  53.0548 305.5647 0001425  89.7516 270.3636 15.06410810298635
STARLINK-1452,45669,53.0422,0.0010736,15.25752017,481.1561471811692,495.90025069632975,1 45669U 20035N   25300.23762343  .00016310  00000+0  64172-3 0  9993,2 45669  53.0422 287.5829 0010736   0.6626 359.4384 15.25752017298871
STARLINK-1453,45670,53.0548,0.0001477,15.06411887,546.152257633843,548.1979948359331,1 45670U 20035P   25300.21772647  .00001552  00000+0  12303-3 0  9992,2 45670  53.0548 275.7999 0001477  97.8670 262.2487 15.06411887298925
STARLINK-1454,45671,53.0545,0.0001533,15.06399221,546.1522891621707,548.2756017620495,1 45671U 20035Q   25300.29606043  .00000180  00000+0  30972-4 0  9996,2 45671  53.0545 305.4477 0001533  92.6093 267.5071 15.06399221298610
STARLINK-1456,45673,53.0545,0.0001789,15.06401828,545.9670115325043,548.444899241943,1 45673U 20035S   25300.24444811 -.00000719  00000+0 -29340-4 0  9993,2 45673  53.0545 305.6798 0001789 124.6878 235.4280 15.06401828298624
STARLINK-1457,45674,53.0544,0.0001341,15.06477435,546.0455835643861,547.9028983992166,1 45674U 20035T   25300.31805674  .00007603  00000+0  52765-3 0  9993,2 45674  53.0544 305.3463 0001341 109.0532 251.0602 15.06477435298605
STARLINK-1458,45675,53.0562,0.000167,15.06383746,546.1048330266531,548.4179160837557,1 45675U 20035U   25300.30711708 -.00003356  00000+0 -20661-3 0  9990,2 45675  53.0562 305.3954 0001670  97.9421 262.1757 15.06383746298591
STARLINK-1460,45676,53.0557,0.0001468,15.06392802,546.2169744525718,548.2502632662681,1 45676U 20035V   25300.34399045 -.00000506  00000+0 -15107-4 0  9995,2 45676  53.0557 305.2311 0001468  95.0199 265.0957 15.06392802298595
STARLINK-1392,45677,53.0556,0.0001599,15.06404078,546.0916982479021,548.3064207197258,1 45677U 20035W   25300.22234723  .00002569  00000+0  19129-3 0  9990,2 45677  53.0556 305.7793 0001599  93.5882 266.5289 15.06404078298617
STARLINK-1394,45679,53.0545,0.00015,15.06385923,546.21589349646,548.2935110071357,1 45679U 20035Y   25300.28594869 -.00000758  00000+0 -32027-4 0  9991,2 45679  53.0545 295.4920 0001500  85.8435 274.2725 15.06385923298768
STARLINK-1402,45685,53.0531,0.0001634,15.25108354,489.3377580416636,491.58241556963094,1 45685U 20035AE  25300.83334491  .00898891  00000+0  32877-1 0  9993,2 45685  53.0531 286.3053 0001634  99.7103  57.0705 15.25108354  5729
STARLINK-1404,45686,53.054,0.0001415,15.06404955,546.2164369464717,548.1763062906393,1 45686U 20035AF  25300.24538750  .00002845  00000+0  20977-3 0  9999,2 45686  53.0540 295.6761 0001415  90.5764 269.5387 15.06404955298767
STARLINK-1413,45689,53.0556,0.0001552,15.0640728,546.1144352432857,548.2640565100064,1 45689U 20035AJ  25300.26381053  .00000386  00000+0  44794-4 0  9998,2 45689  53.0556 295.5879 0001552  95.9023 264.2143 15.06407280298671
STARLINK-1417,45693,53.0542,0.0001496,15.06408074,546.1507839593387,548.2228408440096,1 45693U 20035AN  25300.26013071  .00004029  00000+0  28914-3 0  9998,2 45693  53.0542 295.6096 0001496  91.3978 268.7182 15.06408074298752
STARLINK-1420,45695,53.0543,0.0001607,15.06410239,546.0672785853567,548.2930755260613,1 45695U 20035AQ  25300.26101830  .00003327  00000+0  24205-3 0  9990,2 45695  53.0543 275.5940 0001607  92.9182 267.1991 15.06410239299048
STARLINK-1422,45696,53.0553,0.0001438,15.06418549,546.1588515604844,548.1505654558523,1 45696U 20035AR  25300.27118288 -.00000944  00000+0 -44465-4 0  9992,2 45696  53.0553 295.5597 0001438  90.6175 269.4978 15.06418549298758
STARLINK-1351,45697,53.0553,0.0001511,15.06410903,546.1317268971861,548.2245571331032,1 45697U 20035AS  25300.24721872  .00001966  00000+0  15082-3 0  9994,2 45697  53.0553 275.6650 0001511  84.4936 275.6225 15.06410903299049
STARLINK-1398,45699,53.0498,0.0004439,15.50269242,412.92342702274163,418.9552079774194,1 45699U 20035AU  25300.83334491  .00129371  00000+0  22187-2 0  9992,2 45699  53.0498 233.8505 0004439  92.4533 227.0949 15.50269242  5842
STARLINK-1400,45700,53.0535,0.0001429,15.06387413,546.2604977273659,548.2397733707057,1 45700U 20035AV  25300.22141714 -.00003747  00000+0 -23287-3 0  9995,2 45700  53.0535 275.7820 0001429  93.9246 266.1906 15.06387413299030
STARLINK-1403,45701,53.055,0.0001569,15.06416333,546.0749207632844,548.2480794326148,1 45701U 20035AW  25300.25090854  .00005083  00000+0  35973-3 0  9995,2 45701  53.0550 275.6501 0001569  90.2735 269.8434 15.06416333299031
STARLINK-1407,45703,53.0404,0.0011875,15.40643555,436.10724167806165,452.3103128991215,1 45703U 20035AY  25300.83334491  .00051849  00000+0  12516-2 0  9997,2 45703  53.0404 232.5429 0011875  46.9355 190.7277 15.40643555  5879
STARLINK-1411,45706,53.054,0.0002267,15.39189254,446.9578907832283,450.05309048848267,1 45706U 20035BB  25300.21397097  .00045324  00000+0  11523-2 0  9991,2 45706  53.0540 262.5847 0002267 116.5611 243.5625 15.39189254299210
STARLINK-1423,45710,53.0546,0.0001423,15.06411477,546.1909107152223,548.1618549039704,1 45710U 20035BF  25300.21035691  .00001989  00000+0  15231-3 0  9995,2 45710  53.0546 275.8324 0001423  96.4254 263.6897 15.06411477299033
STARLINK-1433,45711,53.0543,0.000163,15.06390001,546.1133667924842,548.3710404128587,1 45711U 20035BG  25300.25829378  .00004243  00000+0  30367-3 0  9996,2 45711  53.0543 275.6148 0001630  83.5332 276.5843 15.06390001299030
STARLINK-1434,45712,53.0499,0.0004891,15.15083367,517.3512429258908,524.0997102004649,1 45712U 20035BH  25300.24638427  .00042256  00000+0  22338-2 0  9993,2 45712  53.0499 272.0924 0004891  47.9946 312.1463 15.15083367299096
STARLINK-1465,45731,53.055,0.0001779,15.06394106,545.9975995361856,548.4616449803852,1 45731U 20038B   25300.22511448  .00000706  00000+0  66304-4 0  9995,2 45731  53.0550 115.7620 0001779  91.6452 268.4741 15.06394106296074
